{"type": "FeatureCollection", "features": [ {"type": "Feature", "properties": {"norad_id": 35432, "name": "COSMOS 2251 DEB", "group": "cosmos-2251-debris", "lat": 12.481400112226854, "lon": 161.39720863723218, "alt_km": 499.80745152284, "timestamp": "2025-12-27T04:40:45.900976+00:00", "meta": {"OBJECT_NAME": "COSMOS 2251 DEB", "OBJECT_ID": "1993-036AKA", "EPOCH": "2025-12-26T16:55:32.526912", "MEAN_MOTION": 15.24667745, "ECCENTRICITY": 0.00123172, "INCLINATION": 74.0222, "RA_OF_ASC_NODE": 346.0679, "ARG_OF_PERICENTER": 316.4683, "MEAN_ANOMALY": 43.5544, "EPHEMERIS_TYPE": 0, "CLASSIFICATION_TYPE": "U", "NORAD_CAT_ID": 35432, "ELEMENT_SET_NO": 999, "REV_AT_EPOCH": 87716, "BSTAR": 0.0017906457, "MEAN_MOTION_DOT": 0.00044578, "MEAN_MOTION_DDOT": 0}, "tle": {"line1": "1 35432U 93036AKA 25360.70523758  .00044578  00000+0  17906-2 0  9993", "line2": "2 35432  74.0222 346.0679 0012317 316.4683  43.5544 15.24667745877167"}}, "geometry": {"type": "Point", "coordinates": [161.39720863723218, 12.481400112226854]}}, {"type": "Feature", "properties": {"norad_id": 35433, "name": "COSMOS 2251 DEB", "group": "cosmos-2251-debris", "lat": 25.41240657619912, "lon": -40.21207613846107, "alt_km": 757.9190467870003, "timestamp": "2025-12-27T04:40:45.900986+00:00", "meta": {"OBJECT_NAME": "COSMOS 2251 DEB", "OBJECT_ID": "1993-036AKB", "EPOCH": "2025-12-10T18:27:52.031808", "MEAN_MOTION": 14.34742553, "ECCENTRICITY": 0.00254013, "INCLINATION": 74.0339, "RA_OF_ASC_NODE": 342.0559, "ARG_OF_PERICENTER": 37.4572, "MEAN_ANOMALY": 142.4072, "EPHEMERIS_TYPE": 0, "CLASSIFICATION_TYPE": "U", "NORAD_CAT_ID": 35433, "ELEMENT_SET_NO": 999, "REV_AT_EPOCH": 86552, "BSTAR": 0.00041847558, "MEAN_MOTION_DOT": 1.164e-05, "MEAN_MOTION_DDOT": 0}, "tle": {"line1": "1 35433U 93036AKB 25344.76935222  .00001164  00000+0  41848-3 0  9992", "line2": "2 35433  74.0339 342.0559 0025401  37.4572 142.4072 14.34742553865528"}}, "geometry": {"type": "Point", "coordinates": [-40.21207613846107, 25.41240657619912]}}, {"type": "Feature", "properties": {"norad_id": 35434, "name": "COSMOS 2251 DEB", "group": "cosmos-2251-debris", "lat": -9.429980754965413, "lon": 10.260553662966176, "alt_km": 783.273079867402, "timestamp": "2025-12-27T04:40:45.900996+00:00", "meta": {"OBJECT_NAME": "COSMOS 2251 DEB", "OBJECT_ID": "1993-036AKC", "EPOCH": "2025-12-23T05:28:40.876896", "MEAN_MOTION": 14.25716012, "ECCENTRICITY": 0.00872798, "INCLINATION": 74.0389, "RA_OF_ASC_NODE": 194.6941, "ARG_OF_PERICENTER": 263.2384, "MEAN_ANOMALY": 95.8825, "EPHEMERIS_TYPE": 0, "CLASSIFICATION_TYPE": "U", "NORAD_CAT_ID": 35434, "ELEMENT_SET_NO": 999, "REV_AT_EPOCH": 86267, "BSTAR": 0.00051853095, "MEAN_MOTION_DOT": 1.255e-05, "MEAN_MOTION_DDOT": 0}, "tle": {"line1": "1 35434U 93036AKC 25357.22825089  .00001255  00000+0  51853-3 0  9995", "line2": "2 35434  74.0389 194.6941 0087279 263.2384  95.8825 14.25716012862672"}}, "geometry": {"type": "Point", "coordinates": [10.260553662966176, -9.429980754965413]}}, {"type": "Feature", "properties": {"norad_id": 35435, "name": "COSMOS 2251 DEB", "group": "cosmos-2251-debris", "lat": -69.9898493766799, "lon": -52.44920712478409, "alt_km": 639.3408593120721, "timestamp": "2025-12-27T04:40:45.901006+00:00", "meta": {"OBJECT_NAME": "COSMOS 2251 DEB", "OBJECT_ID": "1993-036AKD", "EPOCH": "2025-12-26T23:27:11.821824", "MEAN_MOTION": 14.78894753, "ECCENTRICITY": 0.00063847, "INCLINATION": 74.0104, "RA_OF_ASC_NODE": 76.0379, "ARG_OF_PERICENTER": 173.0542, "MEAN_ANOMALY": 5.8137, "EPHEMERIS_TYPE": 0, "CLASSIFICATION_TYPE": "U", "NORAD_CAT_ID": 35435, "ELEMENT_SET_NO": 999, "REV_AT_EPOCH": 87749, "BSTAR": 0.0023962208, "MEAN_MOTION_DOT": 0.00017681, "MEAN_MOTION_DDOT": 0}, "tle": {"line1": "1 35435U 93036AKD 25360.97722016  .00017681  00000+0  23962-2 0  9997", "line2": "2 35435  74.0104  76.0379 0006384 173.0542   5.8137 14.78894753877498"}}, "geometry": {"type": "Point", "coordinates": [-52.44920712478409, -69.9898493766799]}}, {"type": "Feature", "properties": {"norad_id": 35439, "name": "COSMOS 2251 DEB", "group": "cosmos-2251-debris", "lat": 43.649953691369596, "lon": 125.83777906535033, "alt_km": 1025.4818243498594, "timestamp": "2025-12-27T04:40:45.901016+00:00", "meta": {"OBJECT_NAME": "COSMOS 2251 DEB", "OBJECT_ID": "1993-036AKH", "EPOCH": "2025-12-23T01:03:41.280192", "MEAN_MOTION": 13.9285581, "ECCENTRICITY": 0.02428241, "INCLINATION": 74.0195, "RA_OF_ASC_NODE": 117.083, "ARG_OF_PERICENTER": 284.1415, "MEAN_ANOMALY": 194.5054, "EPHEMERIS_TYPE": 0, "CLASSIFICATION_TYPE": "U", "NORAD_CAT_ID": 35439, "ELEMENT_SET_NO": 999, "REV_AT_EPOCH": 84104, "BSTAR": 0.0017241175, "MEAN_MOTION_DOT": 2.822e-05, "MEAN_MOTION_DDOT": 0}, "tle": {"line1": "1 35439U 93036AKH 25357.04422778  .00002822  00000+0  17241-2 0  9991", "line2": "2 35439  74.0195 117.0830 0242824 284.1415 194.5054 13.92855810841046"}}, "geometry": {"type": "Point", "coordinates": [125.83777906535033, 43.649953691369596]}}, {"type": "Feature", "properties": {"norad_id": 35440, "name": "COSMOS 2251 DEB", "group": "cosmos-2251-debris", "lat": 66.90848522883626, "lon": -42.623720512447655, "alt_km": 700.0160230243946, "timestamp": "2025-12-27T04:40:45.901026+00:00", "meta": {"OBJECT_NAME": "COSMOS 2251 DEB", "OBJECT_ID": "1993-036AKJ", "EPOCH": "2025-12-26T18:23:12.577920", "MEAN_MOTION": 14.68880291, "ECCENTRICITY": 0.00699138, "INCLINATION": 74.0164, "RA_OF_ASC_NODE": 180.4489, "ARG_OF_PERICENTER": 318.4907, "MEAN_ANOMALY": 41.0964, "EPHEMERIS_TYPE": 0, "CLASSIFICATION_TYPE": "U", "NORAD_CAT_ID": 35440, "ELEMENT_SET_NO": 999, "REV_AT_EPOCH": 68971, "BSTAR": 0.00042501367, "MEAN_MOTION_DOT": 2.545e-05, "MEAN_MOTION_DDOT": 0}, "tle": {"line1": "1 35440U 93036AKJ 25360.76611780  .00002545  00000+0  42501-3 0  9999", "line2": "2 35440  74.0164 180.4489 0069913 318.4907  41.0964 14.68880291689716"}}, "geometry": {"type": "Point", "coordinates": [-42.623720512447655, 66.90848522883626]}}, {"type": "Feature", "properties": {"norad_id": 35441, "name": "COSMOS 2251 DEB", "group": "cosmos-2251-debris", "lat": 71.4397940664693, "lon": 32.6785297734747, "alt_km": 665.0162262833701, "timestamp": "2025-12-27T04:40:45.901036+00:00", "meta": {"OBJECT_NAME": "COSMOS 2251 DEB", "OBJECT_ID": "1993-036AKK", "EPOCH": "2025-12-24T12:12:34.900128", "MEAN_MOTION": 14.62759756, "ECCENTRICITY": 0.0036013, "INCLINATION": 74.1345, "RA_OF_ASC_NODE": 275.6818, "ARG_OF_PERICENTER": 167.8993, "MEAN_ANOMALY": 192.3049, "EPHEMERIS_TYPE": 0, "CLASSIFICATION_TYPE": "U", "NORAD_CAT_ID": 35441, "ELEMENT_SET_NO": 999, "REV_AT_EPOCH": 87602, "BSTAR": 0.0014950847, "MEAN_MOTION_DOT": 7.673e-05, "MEAN_MOTION_DDOT": 0}, "tle": {"line1": "1 35441U 93036AKK 25358.50873727  .00007673  00000+0  14951-2 0  9994", "line2": "2 35441  74.1345 275.6818 0036013 167.8993 192.3049 14.62759756876029"}}, "geometry": {"type": "Point", "coordinates": [32.6785297734747, 71.4397940664693]}}, {"type": "Feature", "properties": {"norad_id": 35442, "name": "COSMOS 2251 DEB", "group": "cosmos-2251-debris", "lat": 43.46264018884485, "lon": 86.18830116997464, "alt_km": 606.9894111099866, "timestamp": "2025-12-27T04:40:45.901046+00:00", "meta": {"OBJECT_NAME": "COSMOS 2251 DEB", "OBJECT_ID": "1993-036AKL", "EPOCH": "2025-12-26T22:00:24.772032", "MEAN_MOTION": 14.84920954, "ECCENTRICITY": 0.00041895, "INCLINATION": 74.027, "RA_OF_ASC_NODE": 70.9893, "ARG_OF_PERICENTER": 32.8104, "MEAN_ANOMALY": 327.3334, "EPHEMERIS_TYPE": 0, "CLASSIFICATION_TYPE": "U", "NORAD_CAT_ID": 35442, "ELEMENT_SET_NO": 999, "REV_AT_EPOCH": 87563, "BSTAR": 0.0022508785, "MEAN_MOTION_DOT": 0.00019188, "MEAN_MOTION_DDOT": 0}, "tle": {"line1": "1 35442U 93036AKL 25360.91695338  .00019188  00000+0  22509-2 0  9995", "line2": "2 35442  74.0270  70.9893 0004189  32.8104 327.3334 14.84920954875636"}}, "geometry": {"type": "Point", "coordinates": [86.18830116997464, 43.46264018884485]}}, {"type": "Feature", "properties": {"norad_id": 35443, "name": "COSMOS 2251 DEB", "group": "cosmos-2251-debris", "lat": 13.522373722548004, "lon": -53.79136205898022, "alt_km": 552.9520670126394, "timestamp": "2025-12-27T04:40:45.901056+00:00", "meta": {"OBJECT_NAME": "COSMOS 2251 DEB", "OBJECT_ID": "1993-036AKM", "EPOCH": "2025-12-26T12:35:18.229056", "MEAN_MOTION": 14.9791989, "ECCENTRICITY": 0.0073436, "INCLINATION": 73.9845, "RA_OF_ASC_NODE": 303.6097, "ARG_OF_PERICENTER": 81.8986, "MEAN_ANOMALY": 279.0522, "EPHEMERIS_TYPE": 0, "CLASSIFICATION_TYPE": "U", "NORAD_CAT_ID": 35443, "ELEMENT_SET_NO": 999, "REV_AT_EPOCH": 87084, "BSTAR": 0.0041019, "MEAN_MOTION_DOT": 0.00051428, "MEAN_MOTION_DDOT": 0}, "tle": {"line1": "1 35443U 93036AKM 25360.52451654  .00051428  00000+0  41019-2 0  9994", "line2": "2 35443  73.9845 303.6097 0073436  81.8986 279.0522 14.97919890870849"}}, "geometry": {"type": "Point", "coordinates": [-53.79136205898022, 13.522373722548004]}}, {"type": "Feature", "properties": {"norad_id": 35445, "name": "COSMOS 2251 DEB", "group": "cosmos-2251-debris", "lat": -49.13472912529295, "lon": 111.7643035928188, "alt_km": 757.4449331657188, "timestamp": "2025-12-27T04:40:45.901066+00:00", "meta": {"OBJECT_NAME": "COSMOS 2251 DEB", "OBJECT_ID": "1993-036AKP", "EPOCH": "2025-12-24T19:40:46.420608", "MEAN_MOTION": 14.59408318, "ECCENTRICITY": 0.01439573, "INCLINATION": 74.0386, "RA_OF_ASC_NODE": 276.9734, "ARG_OF_PERICENTER": 1.0045, "MEAN_ANOMALY": 359.138, "EPHEMERIS_TYPE": 0, "CLASSIFICATION_TYPE": "U", "NORAD_CAT_ID": 35445, "ELEMENT_SET_NO": 999, "REV_AT_EPOCH": 87505, "BSTAR": 0.0021997687, "MEAN_MOTION_DOT": 0.00012035, "MEAN_MOTION_DDOT": 0}, "tle": {"line1": "1 35445U 93036AKP 25358.81998172  .00012035  00000+0  21998-2 0  9991", "line2": "2 35445  74.0386 276.9734 0143957   1.0045 359.1380 14.59408318875055"}}, "geometry": {"type": "Point", "coordinates": [111.7643035928188, -49.13472912529295]}}]}